{
  "features": [{
    "geometry": {
      "coordinates": [
        [
          11.942023,
          50.325066
        ],
        [
          11.943107,
          50.324914
        ],
        [
          11.945668,
          50.32459
        ],
        [
          11.9458,
          50.324565
        ],
        [
          11.945894,
          50.324536
        ],
        [
          11.945981,
          50.324496
        ],
        [
          11.946056,
          50.324451
        ],
        [
          11.946113,
          50.324404
        ],
        [
          11.946168,
          50.324341
        ],
        [
          11.946857,
          50.323397
        ],
        [
          11.94679,
          50.323371
        ],
        [
          11.946743,
          50.323332
        ],
        [
          11.94673,
          50.323308
        ],
        [
          11.946724,
          50.323258
        ],
        [
          11.946732,
          50.323234
        ],
        [
          11.946438,
          50.323197
        ],
        [
          11.946191,
          50.323137
        ],
        [
          11.943348,
          50.322294
        ],
        [
          11.942684,
          50.322125
        ],
        [
          11.942104,
          50.322014
        ],
        [
          11.941392,
          50.321916
        ],
        [
          11.940819,
          50.321849
        ],
        [
          11.940435,
          50.321822
        ],
        [
          11.940002,
          50.321805
        ],
        [
          11.937488,
          50.321769
        ],
        [
          11.936464,
          50.321742
        ],
        [
          11.93539,
          50.321728
        ],
        [
          11.933643,
          50.321741
        ],
        [
          11.930702,
          50.321883
        ],
        [
          11.929453,
          50.321866
        ],
        [
          11.928923,
          50.32187
        ],
        [
          11.928792,
          50.321858
        ],
        [
          11.92779,
          50.32164
        ],
        [
          11.926643,
          50.321489
        ],
        [
          11.926034,
          50.321401
        ],
        [
          11.925502,
          50.321304
        ],
        [
          11.925303,
          50.3213
        ],
        [
          11.925141,
          50.321322
        ],
        [
          11.92486,
          50.321391
        ],
        [
          11.924256,
          50.32165
        ],
        [
          11.92338,
          50.322066
        ],
        [
          11.922858,
          50.322268
        ],
        [
          11.922498,
          50.322423
        ],
        [
          11.922312,
          50.322511
        ],
        [
          11.922116,
          50.322621
        ],
        [
          11.921709,
          50.322837
        ],
        [
          11.920987,
          50.323232
        ],
        [
          11.920465,
          50.323589
        ],
        [
          11.92037,
          50.323641
        ],
        [
          11.920196,
          50.323711
        ],
        [
          11.919988,
          50.323768
        ],
        [
          11.919729,
          50.323806
        ],
        [
          11.919518,
          50.32382
        ],
        [
          11.919438,
          50.323819
        ],
        [
          11.918968,
          50.323767
        ],
        [
          11.918514,
          50.323696
        ],
        [
          11.918035,
          50.323593
        ],
        [
          11.917578,
          50.323431
        ],
        [
          11.917214,
          50.323258
        ],
        [
          11.916926,
          50.323143
        ],
        [
          11.916615,
          50.323034
        ],
        [
          11.915892,
          50.322809
        ],
        [
          11.914971,
          50.322501
        ],
        [
          11.914097,
          50.322189
        ],
        [
          11.913806,
          50.322123
        ],
        [
          11.913535,
          50.322092
        ],
        [
          11.913418,
          50.322088
        ],
        [
          11.913229,
          50.322093
        ],
        [
          11.913021,
          50.322109
        ]
      ],
      "type": "LineString"
    },
    "type": "Feature",
    "properties": {
      "road_environment": [
        [
          0,
          44,
          "road"
        ],
        [
          44,
          45,
          "bridge"
        ],
        [
          45,
          68,
          "road"
        ]
      ],
      "road_class": [
        [
          0,
          9,
          "residential"
        ],
        [
          9,
          66,
          "tertiary"
        ],
        [
          66,
          68,
          "primary"
        ]
      ],
      "max_speed": [
        [
          0,
          9,
          null
        ],
        [
          9,
          68,
          50
        ]
      ],
      "average_speed": [
        [
          0,
          9,
          30
        ],
        [
          9,
          68,
          46
        ]
      ]
    }
  }],
  "type": "FeatureCollection"
}